KUIPER-00176            
1 65788U 25217AC  25307.58261980  .00045299  00000+0  12071-2 0  9998
2 65788  51.8710 253.5625 0002718 118.7664 241.3596 15.37718136  6027
KUIPER-00101            
1 65947U 25228A   25307.98296768  .00031100  00000+0  91285-3 0  9994
2 65947  51.8807 207.2874 0005728 209.9953 150.0705 15.34870686  4461
KUIPER-00113            
1 65948U 25228B   25307.91438070  .00019451  00000+0  57147-3 0  9996
2 65948  51.8808 207.5824 0006138 205.7614 154.3067 15.35116169  4452
KUIPER-00117            
1 65949U 25228C   25307.91496128  .00019053  00000+0  56087-3 0  9995
2 65949  51.8807 207.5860 0005916 206.1874 153.8813 15.35070116  4452
KUIPER-00121            
1 65950U 25228D   25307.98824087  .00026509  00000+0  78962-3 0  9993
2 65950  51.8816 207.3284 0005492 225.1424 134.9116 15.34493257  4464
KUIPER-00122            
1 65951U 25228E   25307.91670139 -.00574254  00000+0 -20525-1 0  9991
2 65951  51.8817 207.7522 0006875 235.3008  53.6781 15.30724080  3070
KUIPER-00123            
1 65952U 25228F   25307.91670139 -.00112495  00000+0 -39012-2 0  9999
2 65952  51.8816 207.7261 0005015 230.0604  57.7305 15.29673661  1373
KUIPER-00124            
1 65953U 25228G   25307.92545171  .00022441  00000+0  67458-3 0  9993
2 65953  51.8808 207.6545 0005519 232.7003 127.3480 15.34302379  4451
