<?xml version="1.0" encoding="UTF-8"?>
<ndm xmlns:xsi="http://www.w3.org/2001/XMLSchema-instance" xsi:noNamespaceSchemaLocation="https://sanaregistry.org/r/ndmxml_unqualified/ndmxml-2.0.0-master-2.0.xsd">
<omm id="CCSDS_OMM_VERS" version="2.0">
<header><CREATION_DATE/><ORIGINATOR/></header><body><segment><metadata><OBJECT_NAME>KUIPER-00176</OBJECT_NAME><OBJECT_ID>2025-217AC</OBJECT_ID><CENTER_NAME>EARTH</CENTER_NAME><REF_FRAME>TEME</REF_FRAME><TIME_SYSTEM>UTC</TIME_SYSTEM><MEAN_ELEMENT_THEORY>SGP4</MEAN_ELEMENT_THEORY></metadata><data><meanElements><EPOCH>2025-11-03T13:58:58.350720</EPOCH><MEAN_MOTION>15.37718136</MEAN_MOTION><ECCENTRICITY>.00027183</ECCENTRICITY><INCLINATION>51.8710</INCLINATION><RA_OF_ASC_NODE>253.5625</RA_OF_ASC_NODE><ARG_OF_PERICENTER>118.7664</ARG_OF_PERICENTER><MEAN_ANOMALY>241.3596</MEAN_ANOMALY></meanElements><tleParameters><EPHEMERIS_TYPE>0</EPHEMERIS_TYPE><CLASSIFICATION_TYPE>U</CLASSIFICATION_TYPE><NORAD_CAT_ID>65788</NORAD_CAT_ID><ELEMENT_SET_NO>999</ELEMENT_SET_NO><REV_AT_EPOCH>602</REV_AT_EPOCH><BSTAR>.12070877E-2</BSTAR><MEAN_MOTION_DOT>.45299E-3</MEAN_MOTION_DOT><MEAN_MOTION_DDOT>0</MEAN_MOTION_DDOT></tleParameters></data></segment></body></omm>
<omm id="CCSDS_OMM_VERS" version="2.0">
<header><CREATION_DATE/><ORIGINATOR/></header><body><segment><metadata><OBJECT_NAME>KUIPER-00101</OBJECT_NAME><OBJECT_ID>2025-228A</OBJECT_ID><CENTER_NAME>EARTH</CENTER_NAME><REF_FRAME>TEME</REF_FRAME><TIME_SYSTEM>UTC</TIME_SYSTEM><MEAN_ELEMENT_THEORY>SGP4</MEAN_ELEMENT_THEORY></metadata><data><meanElements><EPOCH>2025-11-03T23:35:28.407552</EPOCH><MEAN_MOTION>15.34870686</MEAN_MOTION><ECCENTRICITY>.00057289</ECCENTRICITY><INCLINATION>51.8807</INCLINATION><RA_OF_ASC_NODE>207.2874</RA_OF_ASC_NODE><ARG_OF_PERICENTER>209.9953</ARG_OF_PERICENTER><MEAN_ANOMALY>150.0705</MEAN_ANOMALY></meanElements><tleParameters><EPHEMERIS_TYPE>0</EPHEMERIS_TYPE><CLASSIFICATION_TYPE>U</CLASSIFICATION_TYPE><NORAD_CAT_ID>65947</NORAD_CAT_ID><ELEMENT_SET_NO>999</ELEMENT_SET_NO><REV_AT_EPOCH>446</REV_AT_EPOCH><BSTAR>.91284921E-3</BSTAR><MEAN_MOTION_DOT>.311E-3</MEAN_MOTION_DOT><MEAN_MOTION_DDOT>0</MEAN_MOTION_DDOT></tleParameters></data></segment></body></omm>
<omm id="CCSDS_OMM_VERS" version="2.0">
<header><CREATION_DATE/><ORIGINATOR/></header><body><segment><metadata><OBJECT_NAME>KUIPER-00113</OBJECT_NAME><OBJECT_ID>2025-228B</OBJECT_ID><CENTER_NAME>EARTH</CENTER_NAME><REF_FRAME>TEME</REF_FRAME><TIME_SYSTEM>UTC</TIME_SYSTEM><MEAN_ELEMENT_THEORY>SGP4</MEAN_ELEMENT_THEORY></metadata><data><meanElements><EPOCH>2025-11-03T21:56:42.492480</EPOCH><MEAN_MOTION>15.35116169</MEAN_MOTION><ECCENTRICITY>.00061382</ECCENTRICITY><INCLINATION>51.8808</INCLINATION><RA_OF_ASC_NODE>207.5824</RA_OF_ASC_NODE><ARG_OF_PERICENTER>205.7614</ARG_OF_PERICENTER><MEAN_ANOMALY>154.3067</MEAN_ANOMALY></meanElements><tleParameters><EPHEMERIS_TYPE>0</EPHEMERIS_TYPE><CLASSIFICATION_TYPE>U</CLASSIFICATION_TYPE><NORAD_CAT_ID>65948</NORAD_CAT_ID><ELEMENT_SET_NO>999</ELEMENT_SET_NO><REV_AT_EPOCH>445</REV_AT_EPOCH><BSTAR>.57146579E-3</BSTAR><MEAN_MOTION_DOT>.19451E-3</MEAN_MOTION_DOT><MEAN_MOTION_DDOT>0</MEAN_MOTION_DDOT></tleParameters></data></segment></body></omm>
<omm id="CCSDS_OMM_VERS" version="2.0">
<header><CREATION_DATE/><ORIGINATOR/></header><body><segment><metadata><OBJECT_NAME>KUIPER-00117</OBJECT_NAME><OBJECT_ID>2025-228C</OBJECT_ID><CENTER_NAME>EARTH</CENTER_NAME><REF_FRAME>TEME</REF_FRAME><TIME_SYSTEM>UTC</TIME_SYSTEM><MEAN_ELEMENT_THEORY>SGP4</MEAN_ELEMENT_THEORY></metadata><data><meanElements><EPOCH>2025-11-03T21:57:32.654592</EPOCH><MEAN_MOTION>15.35070116</MEAN_MOTION><ECCENTRICITY>.00059161</ECCENTRICITY><INCLINATION>51.8807</INCLINATION><RA_OF_ASC_NODE>207.5860</RA_OF_ASC_NODE><ARG_OF_PERICENTER>206.1874</ARG_OF_PERICENTER><MEAN_ANOMALY>153.8813</MEAN_ANOMALY></meanElements><tleParameters><EPHEMERIS_TYPE>0</EPHEMERIS_TYPE><CLASSIFICATION_TYPE>U</CLASSIFICATION_TYPE><NORAD_CAT_ID>65949</NORAD_CAT_ID><ELEMENT_SET_NO>999</ELEMENT_SET_NO><REV_AT_EPOCH>445</REV_AT_EPOCH><BSTAR>.56087381E-3</BSTAR><MEAN_MOTION_DOT>.19053E-3</MEAN_MOTION_DOT><MEAN_MOTION_DDOT>0</MEAN_MOTION_DDOT></tleParameters></data></segment></body></omm>
<omm id="CCSDS_OMM_VERS" version="2.0">
<header><CREATION_DATE/><ORIGINATOR/></header><body><segment><metadata><OBJECT_NAME>KUIPER-00121</OBJECT_NAME><OBJECT_ID>2025-228D</OBJECT_ID><CENTER_NAME>EARTH</CENTER_NAME><REF_FRAME>TEME</REF_FRAME><TIME_SYSTEM>UTC</TIME_SYSTEM><MEAN_ELEMENT_THEORY>SGP4</MEAN_ELEMENT_THEORY></metadata><data><meanElements><EPOCH>2025-11-03T23:43:04.011168</EPOCH><MEAN_MOTION>15.34493257</MEAN_MOTION><ECCENTRICITY>.00054928</ECCENTRICITY><INCLINATION>51.8816</INCLINATION><RA_OF_ASC_NODE>207.3284</RA_OF_ASC_NODE><ARG_OF_PERICENTER>225.1424</ARG_OF_PERICENTER><MEAN_ANOMALY>134.9116</MEAN_ANOMALY></meanElements><tleParameters><EPHEMERIS_TYPE>0</EPHEMERIS_TYPE><CLASSIFICATION_TYPE>U</CLASSIFICATION_TYPE><NORAD_CAT_ID>65950</NORAD_CAT_ID><ELEMENT_SET_NO>999</ELEMENT_SET_NO><REV_AT_EPOCH>446</REV_AT_EPOCH><BSTAR>.78962001E-3</BSTAR><MEAN_MOTION_DOT>.26509E-3</MEAN_MOTION_DOT><MEAN_MOTION_DDOT>0</MEAN_MOTION_DDOT></tleParameters></data></segment></body></omm>
<omm id="CCSDS_OMM_VERS" version="2.0">
<header><CREATION_DATE/><ORIGINATOR/></header><body><segment><metadata><OBJECT_NAME>KUIPER-00122</OBJECT_NAME><OBJECT_ID>2025-228E</OBJECT_ID><CENTER_NAME>EARTH</CENTER_NAME><REF_FRAME>TEME</REF_FRAME><TIME_SYSTEM>UTC</TIME_SYSTEM><MEAN_ELEMENT_THEORY>SGP4</MEAN_ELEMENT_THEORY></metadata><data><meanElements><EPOCH>2025-11-03T22:00:03.000096</EPOCH><MEAN_MOTION>15.30724080</MEAN_MOTION><ECCENTRICITY>.00068757</ECCENTRICITY><INCLINATION>51.8817</INCLINATION><RA_OF_ASC_NODE>207.7522</RA_OF_ASC_NODE><ARG_OF_PERICENTER>235.3008</ARG_OF_PERICENTER><MEAN_ANOMALY>53.6781</MEAN_ANOMALY></meanElements><tleParameters><EPHEMERIS_TYPE>0</EPHEMERIS_TYPE><CLASSIFICATION_TYPE>U</CLASSIFICATION_TYPE><NORAD_CAT_ID>65951</NORAD_CAT_ID><ELEMENT_SET_NO>999</ELEMENT_SET_NO><REV_AT_EPOCH>307</REV_AT_EPOCH><BSTAR>-.20525134E-1</BSTAR><MEAN_MOTION_DOT>-.574254E-2</MEAN_MOTION_DOT><MEAN_MOTION_DDOT>0</MEAN_MOTION_DDOT></tleParameters></data></segment></body></omm>
<omm id="CCSDS_OMM_VERS" version="2.0">
<header><CREATION_DATE/><ORIGINATOR/></header><body><segment><metadata><OBJECT_NAME>KUIPER-00123</OBJECT_NAME><OBJECT_ID>2025-228F</OBJECT_ID><CENTER_NAME>EARTH</CENTER_NAME><REF_FRAME>TEME</REF_FRAME><TIME_SYSTEM>UTC</TIME_SYSTEM><MEAN_ELEMENT_THEORY>SGP4</MEAN_ELEMENT_THEORY></metadata><data><meanElements><EPOCH>2025-11-03T22:00:03.000096</EPOCH><MEAN_MOTION>15.29673661</MEAN_MOTION><ECCENTRICITY>.00050153</ECCENTRICITY><INCLINATION>51.8816</INCLINATION><RA_OF_ASC_NODE>207.7261</RA_OF_ASC_NODE><ARG_OF_PERICENTER>230.0604</ARG_OF_PERICENTER><MEAN_ANOMALY>57.7305</MEAN_ANOMALY></meanElements><tleParameters><EPHEMERIS_TYPE>0</EPHEMERIS_TYPE><CLASSIFICATION_TYPE>U</CLASSIFICATION_TYPE><NORAD_CAT_ID>65952</NORAD_CAT_ID><ELEMENT_SET_NO>999</ELEMENT_SET_NO><REV_AT_EPOCH>137</REV_AT_EPOCH><BSTAR>-.3901204E-2</BSTAR><MEAN_MOTION_DOT>-.112495E-2</MEAN_MOTION_DOT><MEAN_MOTION_DDOT>0</MEAN_MOTION_DDOT></tleParameters></data></segment></body></omm>
<omm id="CCSDS_OMM_VERS" version="2.0">
<header><CREATION_DATE/><ORIGINATOR/></header><body><segment><metadata><OBJECT_NAME>KUIPER-00124</OBJECT_NAME><OBJECT_ID>2025-228G</OBJECT_ID><CENTER_NAME>EARTH</CENTER_NAME><REF_FRAME>TEME</REF_FRAME><TIME_SYSTEM>UTC</TIME_SYSTEM><MEAN_ELEMENT_THEORY>SGP4</MEAN_ELEMENT_THEORY></metadata><data><meanElements><EPOCH>2025-11-03T22:12:39.027744</EPOCH><MEAN_MOTION>15.34302379</MEAN_MOTION><ECCENTRICITY>.00055194</ECCENTRICITY><INCLINATION>51.8808</INCLINATION><RA_OF_ASC_NODE>207.6545</RA_OF_ASC_NODE><ARG_OF_PERICENTER>232.7003</ARG_OF_PERICENTER><MEAN_ANOMALY>127.3480</MEAN_ANOMALY></meanElements><tleParameters><EPHEMERIS_TYPE>0</EPHEMERIS_TYPE><CLASSIFICATION_TYPE>U</CLASSIFICATION_TYPE><NORAD_CAT_ID>65953</NORAD_CAT_ID><ELEMENT_SET_NO>999</ELEMENT_SET_NO><REV_AT_EPOCH>445</REV_AT_EPOCH><BSTAR>.67457809E-3</BSTAR><MEAN_MOTION_DOT>.22441E-3</MEAN_MOTION_DOT><MEAN_MOTION_DDOT>0</MEAN_MOTION_DDOT></tleParameters></data></segment></body></omm>

</ndm>
